{
  "type": "FeatureCollection",
  "features": [
    {
      "type": "Feature",
      "properties": {
        "norad_id": 41948,
        "name": "CARTOSAT-2D",
        "group": "resource",
        "lat": 26.094494188153195,
        "lon": -118.35812259109196,
        "alt_km": 504.54616438017456,
        "timestamp": "2025-12-26T16:33:55.241363+00:00",
        "meta_object_name": "CARTOSAT-2D",
        "meta_object_id": "2017-008A",
        "meta_epoch": "2025-12-26T04:49:35.356224",
        "meta_mean_motion": 15.19196843,
        "meta_eccentricity": 0.00054545,
        "meta_inclination": 97.4367,
        "meta_ra_of_asc_node": 57.4924,
        "meta_arg_of_pericenter": 115.5347,
        "meta_mean_anomaly": 244.6452,
        "meta_ephemeris_type": 0,
        "meta_classification_type": "U",
        "meta_norad_cat_id": 41948,
        "meta_element_set_no": 999,
        "meta_rev_at_epoch": 49131,
        "meta_bstar": 0.00016995586,
        "meta_mean_motion_dot": 3.509e-05,
        "meta_mean_motion_ddot": 0,
        "tle_line1": "1 41948U 17008A   25360.20110366  .00003509  00000+0  16996-3 0  9997",
        "tle_line2": "2 41948  97.4367  57.4924 0005454 115.5347 244.6452 15.19196843491311"
      },
      "geometry": {
        "type": "Point",
        "coordinates": [
          -118.35812259109196,
          26.094494188153195
        ]
      }
    },
    {
      "type": "Feature",
      "properties": {
        "norad_id": 42063,
        "name": "SENTINEL-2B",
        "group": "resource",
        "lat": 1.029127547557247,
        "lon": 72.78413985042715,
        "alt_km": 791.7639855866337,
        "timestamp": "2025-12-26T16:33:55.241372+00:00",
        "meta_object_name": "SENTINEL-2B",
        "meta_object_id": "2017-013A",
        "meta_epoch": "2025-12-26T06:29:25.982304",
        "meta_mean_motion": 14.30815793,
        "meta_eccentricity": 0.00011765,
        "meta_inclination": 98.5696,
        "meta_ra_of_asc_node": 72.5256,
        "meta_arg_of_pericenter": 89.7264,
        "meta_mean_anomaly": 270.4054,
        "meta_ephemeris_type": 0,
        "meta_classification_type": "U",
        "meta_norad_cat_id": 42063,
        "meta_element_set_no": 999,
        "meta_rev_at_epoch": 45991,
        "meta_bstar": 3.9162552e-05,
        "meta_mean_motion_dot": 5.9e-07,
        "meta_mean_motion_ddot": 0,
        "tle_line1": "1 42063U 17013A   25360.27043961  .00000059  00000+0  39163-4 0  9994",
        "tle_line2": "2 42063  98.5696  72.5256 0001176  89.7264 270.4054 14.30815793459919"
      },
      "geometry": {
        "type": "Point",
        "coordinates": [
          72.78413985042715,
          1.029127547557247
        ]
      }
    },
    {
      "type": "Feature",
      "properties": {
        "norad_id": 42767,
        "name": "CARTOSAT-2E",
        "group": "resource",
        "lat": 61.81784690795104,
        "lon": 43.950084588868826,
        "alt_km": 502.7003585869352,
        "timestamp": "2025-12-26T16:33:55.241381+00:00",
        "meta_object_name": "CARTOSAT-2E",
        "meta_object_id": "2017-036C",
        "meta_epoch": "2025-12-26T06:48:19.366272",
        "meta_mean_motion": 15.19206829,
        "meta_eccentricity": 0.00026617,
        "meta_inclination": 97.4536,
        "meta_ra_of_asc_node": 57.6921,
        "meta_arg_of_pericenter": 168.875,
        "meta_mean_anomaly": 191.2544,
        "meta_ephemeris_type": 0,
        "meta_classification_type": "U",
        "meta_norad_cat_id": 42767,
        "meta_element_set_no": 999,
        "meta_rev_at_epoch": 47189,
        "meta_bstar": 0.00025347369,
        "meta_mean_motion_dot": 5.268e-05,
        "meta_mean_motion_ddot": 0,
        "tle_line1": "1 42767U 17036C   25360.28355748  .00005268  00000+0  25347-3 0  9995",
        "tle_line2": "2 42767  97.4536  57.6921 0002661 168.8750 191.2544 15.19206829471890"
      },
      "geometry": {
        "type": "Point",
        "coordinates": [
          43.950084588868826,
          61.81784690795104
        ]
      }
    },
    {
      "type": "Feature",
      "properties": {
        "norad_id": 42920,
        "name": "FORMOSAT-5",
        "group": "resource",
        "lat": -71.5030071568843,
        "lon": 100.40885925539986,
        "alt_km": 724.5379418679386,
        "timestamp": "2025-12-26T16:33:55.241390+00:00",
        "meta_object_name": "FORMOSAT-5",
        "meta_object_id": "2017-049A",
        "meta_epoch": "2025-12-26T05:18:57.780576",
        "meta_mean_motion": 14.50768245,
        "meta_eccentricity": 0.00098529,
        "meta_inclination": 98.2437,
        "meta_ra_of_asc_node": 74.2686,
        "meta_arg_of_pericenter": 255.3259,
        "meta_mean_anomaly": 104.6844,
        "meta_ephemeris_type": 0,
        "meta_classification_type": "U",
        "meta_norad_cat_id": 42920,
        "meta_element_set_no": 999,
        "meta_rev_at_epoch": 44159,
        "meta_bstar": 7.4923249e-05,
        "meta_mean_motion_dot": 2.51e-06,
        "meta_mean_motion_ddot": 0,
        "tle_line1": "1 42920U 17049A   25360.22150209  .00000251  00000+0  74923-4 0  9991",
        "tle_line2": "2 42920  98.2437  74.2686 0009852 255.3259 104.6844 14.50768245441592"
      },
      "geometry": {
        "type": "Point",
        "coordinates": [
          100.40885925539986,
          -71.5030071568843
        ]
      }
    },
    {
      "type": "Feature",
      "properties": {
        "norad_id": 42969,
        "name": "SENTINEL-5P",
        "group": "resource",
        "lat": -12.408634035507731,
        "lon": 117.20291268188014,
        "alt_km": 831.5396533889589,
        "timestamp": "2025-12-26T16:33:55.241400+00:00",
        "meta_object_name": "SENTINEL-5P",
        "meta_object_id": "2017-064A",
        "meta_epoch": "2025-12-25T17:40:12.396576",
        "meta_mean_motion": 14.19520693,
        "meta_eccentricity": 0.00010643,
        "meta_inclination": 98.7802,
        "meta_ra_of_asc_node": 298.2061,
        "meta_arg_of_pericenter": 90.9871,
        "meta_mean_anomaly": 269.1427,
        "meta_ephemeris_type": 0,
        "meta_classification_type": "U",
        "meta_norad_cat_id": 42969,
        "meta_element_set_no": 999,
        "meta_rev_at_epoch": 42495,
        "meta_bstar": 6.8608624e-05,
        "meta_mean_motion_dot": 1e-06,
        "meta_mean_motion_ddot": 0,
        "tle_line1": "1 42969U 17064A   25359.73625459  .00000100  00000+0  68609-4 0  9996",
        "tle_line2": "2 42969  98.7802 298.2061 0001064  90.9871 269.1427 14.19520693424954"
      },
      "geometry": {
        "type": "Point",
        "coordinates": [
          117.20291268188014,
          -12.408634035507731
        ]
      }
    },
    {
      "type": "Feature",
      "properties": {
        "norad_id": 42987,
        "name": "SKYSAT-C11",
        "group": "resource",
        "lat": -73.06435134554216,
        "lon": -66.7892416749339,
        "alt_km": 430.493385435605,
        "timestamp": "2025-12-26T16:33:55.241409+00:00",
        "meta_object_name": "SKYSAT-C11",
        "meta_object_id": "2017-068A",
        "meta_epoch": "2025-12-26T07:42:41.705856",
        "meta_mean_motion": 15.48035151,
        "meta_eccentricity": 0.00011385,
        "meta_inclination": 97.4151,
        "meta_ra_of_asc_node": 138.1546,
        "meta_arg_of_pericenter": 94.0685,
        "meta_mean_anomaly": 266.0696,
        "meta_ephemeris_type": 0,
        "meta_classification_type": "U",
        "meta_norad_cat_id": 42987,
        "meta_element_set_no": 999,
        "meta_rev_at_epoch": 45641,
        "meta_bstar": 0.00042677634,
        "meta_mean_motion_dot": 0.00022269,
        "meta_mean_motion_ddot": 0,
        "tle_line1": "1 42987U 17068A   25360.32131604  .00022269  00000+0  42678-3 0  9998",
        "tle_line2": "2 42987  97.4151 138.1546 0001138  94.0685 266.0696 15.48035151456410"
      },
      "geometry": {
        "type": "Point",
        "coordinates": [
          -66.7892416749339,
          -73.06435134554216
        ]
      }
    },
    {
      "type": "Feature",
      "properties": {
        "norad_id": 42988,
        "name": "SKYSAT-C10",
        "group": "resource",
        "lat": -81.61581179312104,
        "lon": -166.15372037515195,
        "alt_km": 479.53115729967703,
        "timestamp": "2025-12-26T16:33:55.241418+00:00",
        "meta_object_name": "SKYSAT-C10",
        "meta_object_id": "2017-068B",
        "meta_epoch": "2025-12-24T19:29:00.783168",
        "meta_mean_motion": 15.32071049,
        "meta_eccentricity": 0.00043105,
        "meta_inclination": 97.4272,
        "meta_ra_of_asc_node": 129.6977,
        "meta_arg_of_pericenter": 75.127,
        "meta_mean_anomaly": 285.0448,
        "meta_ephemeris_type": 0,
        "meta_classification_type": "U",
        "meta_norad_cat_id": 42988,
        "meta_element_set_no": 999,
        "meta_rev_at_epoch": 45564,
        "meta_bstar": 0.00040464637,
        "meta_mean_motion_dot": 0.00012461,
        "meta_mean_motion_ddot": 0,
        "tle_line1": "1 42988U 17068B   25358.81181462  .00012461  00000+0  40465-3 0  9992",
        "tle_line2": "2 42988  97.4272 129.6977 0004310  75.1270 285.0448 15.32071049455642"
      },
      "geometry": {
        "type": "Point",
        "coordinates": [
          -166.15372037515195,
          -81.61581179312104
        ]
      }
    }
  ]
}